CCSDS_OMM_VERS = 2.0
CREATION_DATE  = 
ORIGINATOR     = 

OBJECT_NAME    = QIANFAN-96
OBJECT_ID      = 2025-233F
CENTER_NAME    = EARTH
REF_FRAME      = TEME
TIME_SYSTEM    = UTC
MEAN_ELEMENT_THEORY = SGP/SGP4

EPOCH          = 2025-11-04T10:38:34.237248
MEAN_MOTION    = 14.26155008
ECCENTRICITY   = .0015997
INCLINATION    = 88.9950
RA_OF_ASC_NODE = 66.4390
ARG_OF_PERICENTER = 156.1615
MEAN_ANOMALY   = 204.0323

EPHEMERIS_TYPE = 0
CLASSIFICATION_TYPE = U
NORAD_CAT_ID   = 66038
ELEMENT_SET_NO = 999
REV_AT_EPOCH   = 258
BSTAR          = .26511E-3
MEAN_MOTION_DOT = .649E-5
MEAN_MOTION_DDOT = 0

CCSDS_OMM_VERS = 2.0
CREATION_DATE  = 
ORIGINATOR     = 

OBJECT_NAME    = QIANFAN-97
OBJECT_ID      = 2025-233G
CENTER_NAME    = EARTH
REF_FRAME      = TEME
TIME_SYSTEM    = UTC
MEAN_ELEMENT_THEORY = SGP/SGP4

EPOCH          = 2025-11-04T10:38:26.158848
MEAN_MOTION    = 14.26160938
ECCENTRICITY   = .0015567
INCLINATION    = 88.9951
RA_OF_ASC_NODE = 66.4390
ARG_OF_PERICENTER = 155.6042
MEAN_ANOMALY   = 204.5892

EPHEMERIS_TYPE = 0
CLASSIFICATION_TYPE = U
NORAD_CAT_ID   = 66039
ELEMENT_SET_NO = 999
REV_AT_EPOCH   = 258
BSTAR          = .26757E-3
MEAN_MOTION_DOT = .655E-5
MEAN_MOTION_DDOT = 0

CCSDS_OMM_VERS = 2.0
CREATION_DATE  = 
ORIGINATOR     = 

OBJECT_NAME    = QIANFAN-98
OBJECT_ID      = 2025-233H
CENTER_NAME    = EARTH
REF_FRAME      = TEME
TIME_SYSTEM    = UTC
MEAN_ELEMENT_THEORY = SGP/SGP4

EPOCH          = 2025-11-04T10:38:05.201664
MEAN_MOTION    = 14.26182400
ECCENTRICITY   = .0015201
INCLINATION    = 88.9951
RA_OF_ASC_NODE = 66.4391
ARG_OF_PERICENTER = 154.3335
MEAN_ANOMALY   = 205.8616

EPHEMERIS_TYPE = 0
CLASSIFICATION_TYPE = U
NORAD_CAT_ID   = 66040
ELEMENT_SET_NO = 999
REV_AT_EPOCH   = 258
BSTAR          = .26823E-3
MEAN_MOTION_DOT = .657E-5
MEAN_MOTION_DDOT = 0

CCSDS_OMM_VERS = 2.0
CREATION_DATE  = 
ORIGINATOR     = 

OBJECT_NAME    = QIANFAN-99
OBJECT_ID      = 2025-233J
CENTER_NAME    = EARTH
REF_FRAME      = TEME
TIME_SYSTEM    = UTC
MEAN_ELEMENT_THEORY = SGP/SGP4

EPOCH          = 2025-11-04T10:37:54.309216
MEAN_MOTION    = 14.26197893
ECCENTRICITY   = .0015345
INCLINATION    = 88.9950
RA_OF_ASC_NODE = 66.4389
ARG_OF_PERICENTER = 153.4568
MEAN_ANOMALY   = 206.7414

EPHEMERIS_TYPE = 0
CLASSIFICATION_TYPE = U
NORAD_CAT_ID   = 66041
ELEMENT_SET_NO = 999
REV_AT_EPOCH   = 258
BSTAR          = .27022E-3
MEAN_MOTION_DOT = .662E-5
MEAN_MOTION_DDOT = 0

CCSDS_OMM_VERS = 2.0
CREATION_DATE  = 
ORIGINATOR     = 

OBJECT_NAME    = QIANFAN-100
OBJECT_ID      = 2025-233K
CENTER_NAME    = EARTH
REF_FRAME      = TEME
TIME_SYSTEM    = UTC
MEAN_ELEMENT_THEORY = SGP/SGP4

EPOCH          = 2025-11-04T10:37:48.307872
MEAN_MOTION    = 14.26213458
ECCENTRICITY   = .0015797
INCLINATION    = 88.9951
RA_OF_ASC_NODE = 66.4390
ARG_OF_PERICENTER = 155.1385
MEAN_ANOMALY   = 205.0573

EPHEMERIS_TYPE = 0
CLASSIFICATION_TYPE = U
NORAD_CAT_ID   = 66042
ELEMENT_SET_NO = 999
REV_AT_EPOCH   = 258
BSTAR          = .26472E-3
MEAN_MOTION_DOT = .649E-5
MEAN_MOTION_DDOT = 0

CCSDS_OMM_VERS = 2.0
CREATION_DATE  = 
ORIGINATOR     = 

OBJECT_NAME    = QIANFAN-101
OBJECT_ID      = 2025-233L
CENTER_NAME    = EARTH
REF_FRAME      = TEME
TIME_SYSTEM    = UTC
MEAN_ELEMENT_THEORY = SGP/SGP4

EPOCH          = 2025-11-04T10:34:29.021088
MEAN_MOTION    = 14.26634554
ECCENTRICITY   = .0015731
INCLINATION    = 88.9951
RA_OF_ASC_NODE = 66.4386
ARG_OF_PERICENTER = 153.3796
MEAN_ANOMALY   = 206.8208

EPHEMERIS_TYPE = 0
CLASSIFICATION_TYPE = U
NORAD_CAT_ID   = 66043
ELEMENT_SET_NO = 999
REV_AT_EPOCH   = 258
BSTAR          = .17427E-3
MEAN_MOTION_DOT = .436E-5
MEAN_MOTION_DDOT = 0

CCSDS_OMM_VERS = 2.0
CREATION_DATE  = 
ORIGINATOR     = 

OBJECT_NAME    = QIANFAN-102
OBJECT_ID      = 2025-233M
CENTER_NAME    = EARTH
REF_FRAME      = TEME
TIME_SYSTEM    = UTC
MEAN_ELEMENT_THEORY = SGP/SGP4

EPOCH          = 2025-11-04T10:37:39.311040
MEAN_MOTION    = 14.26217663
ECCENTRICITY   = .0016162
INCLINATION    = 88.9950
RA_OF_ASC_NODE = 66.4389
ARG_OF_PERICENTER = 155.2440
MEAN_ANOMALY   = 204.9533

EPHEMERIS_TYPE = 0
CLASSIFICATION_TYPE = U
NORAD_CAT_ID   = 66044
ELEMENT_SET_NO = 999
REV_AT_EPOCH   = 258
BSTAR          = .27606E-3
MEAN_MOTION_DOT = .677E-5
MEAN_MOTION_DDOT = 0

CCSDS_OMM_VERS = 2.0
CREATION_DATE  = 
ORIGINATOR     = 

OBJECT_NAME    = QIANFAN-103
OBJECT_ID      = 2025-233N
CENTER_NAME    = EARTH
REF_FRAME      = TEME
TIME_SYSTEM    = UTC
MEAN_ELEMENT_THEORY = SGP/SGP4

EPOCH          = 2025-11-04T10:37:14.693088
MEAN_MOTION    = 14.26246859
ECCENTRICITY   = .0015554
INCLINATION    = 88.9951
RA_OF_ASC_NODE = 66.4390
ARG_OF_PERICENTER = 154.0012
MEAN_ANOMALY   = 206.1966

EPHEMERIS_TYPE = 0
CLASSIFICATION_TYPE = U
NORAD_CAT_ID   = 66045
ELEMENT_SET_NO = 999
REV_AT_EPOCH   = 258
BSTAR          = .27419E-3
MEAN_MOTION_DOT = .672E-5
MEAN_MOTION_DDOT = 0

CCSDS_OMM_VERS = 2.0
CREATION_DATE  = 
ORIGINATOR     = 

OBJECT_NAME    = QIANFAN-104
OBJECT_ID      = 2025-233P
CENTER_NAME    = EARTH
REF_FRAME      = TEME
TIME_SYSTEM    = UTC
MEAN_ELEMENT_THEORY = SGP/SGP4

EPOCH          = 2025-11-04T10:36:56.560320
MEAN_MOTION    = 14.26267606
ECCENTRICITY   = .0015529
INCLINATION    = 88.9951
RA_OF_ASC_NODE = 66.4390
ARG_OF_PERICENTER = 156.2769
MEAN_ANOMALY   = 203.9144

EPHEMERIS_TYPE = 0
CLASSIFICATION_TYPE = U
NORAD_CAT_ID   = 66046
ELEMENT_SET_NO = 999
REV_AT_EPOCH   = 258
BSTAR          = .27606E-3
MEAN_MOTION_DOT = .677E-5
MEAN_MOTION_DDOT = 0

CCSDS_OMM_VERS = 2.0
CREATION_DATE  = 
ORIGINATOR     = 

OBJECT_NAME    = QIANFAN-105
OBJECT_ID      = 2025-233Q
CENTER_NAME    = EARTH
REF_FRAME      = TEME
TIME_SYSTEM    = UTC
MEAN_ELEMENT_THEORY = SGP/SGP4

EPOCH          = 2025-11-04T10:36:26.407584
MEAN_MOTION    = 14.26326004
ECCENTRICITY   = .0015708
INCLINATION    = 88.9950
RA_OF_ASC_NODE = 66.4387
ARG_OF_PERICENTER = 156.3956
MEAN_ANOMALY   = 203.7962

EPHEMERIS_TYPE = 0
CLASSIFICATION_TYPE = U
NORAD_CAT_ID   = 66047
ELEMENT_SET_NO = 999
REV_AT_EPOCH   = 258
BSTAR          = .27403E-3
MEAN_MOTION_DOT = .673E-5
MEAN_MOTION_DDOT = 0

CCSDS_OMM_VERS = 2.0
CREATION_DATE  = 
ORIGINATOR     = 

OBJECT_NAME    = QIANFAN-106
OBJECT_ID      = 2025-233R
CENTER_NAME    = EARTH
REF_FRAME      = TEME
TIME_SYSTEM    = UTC
MEAN_ELEMENT_THEORY = SGP/SGP4

EPOCH          = 2025-11-04T12:17:29.241600
MEAN_MOTION    = 14.26309432
ECCENTRICITY   = .0015605
INCLINATION    = 88.9951
RA_OF_ASC_NODE = 66.4308
ARG_OF_PERICENTER = 155.8663
MEAN_ANOMALY   = 204.3265

EPHEMERIS_TYPE = 0
CLASSIFICATION_TYPE = U
NORAD_CAT_ID   = 66048
ELEMENT_SET_NO = 999
REV_AT_EPOCH   = 259
BSTAR          = .26706E-3
MEAN_MOTION_DOT = .656E-5
MEAN_MOTION_DDOT = 0

CCSDS_OMM_VERS = 2.0
CREATION_DATE  = 
ORIGINATOR     = 

OBJECT_NAME    = QIANFAN-107
OBJECT_ID      = 2025-233S
CENTER_NAME    = EARTH
REF_FRAME      = TEME
TIME_SYSTEM    = UTC
MEAN_ELEMENT_THEORY = SGP/SGP4

EPOCH          = 2025-11-04T10:36:11.602944
MEAN_MOTION    = 14.26338212
ECCENTRICITY   = .0016387
INCLINATION    = 88.9950
RA_OF_ASC_NODE = 66.4387
ARG_OF_PERICENTER = 154.2450
MEAN_ANOMALY   = 205.9563

EPHEMERIS_TYPE = 0
CLASSIFICATION_TYPE = U
NORAD_CAT_ID   = 66049
ELEMENT_SET_NO = 999
REV_AT_EPOCH   = 258
BSTAR          = .26864E-3
MEAN_MOTION_DOT = .66E-5
MEAN_MOTION_DDOT = 0

